OBJECT_NAME,OBJECT_ID,EPOCH,MEAN_MOTION,ECCENTRICITY,INCLINATION,RA_OF_ASC_NODE,ARG_OF_PERICENTER,MEAN_ANOMALY,EPHEMERIS_TYPE,CLASSIFICATION_TYPE,NORAD_CAT_ID,ELEMENT_SET_NO,REV_AT_EPOCH,BSTAR,MEAN_MOTION_DOT,MEAN_MOTION_DDOT
CZ-6A R/B,2026-124U,2026-06-13T22:33:02.345472,14.57302475,.01001872,89.0257,2.3456,72.8718,288.3434,0,U,69400,999,138,.60370492E-4,.312E-5,0
DTC TEST OBJECT A,2026-128A,2026-06-13T16:46:14.959200,15.55676420,.00082035,54.9941,321.1429,275.7594,84.2506,0,U,69472,999,68,.37868756E-3,.26094E-3,0
DTC TEST OBJECT B,2026-128B,2026-06-13T16:45:16.375680,15.56093575,.0008258,55.0033,321.1410,276.8245,83.1851,0,U,69473,999,67,.39829097E-3,.27909E-3,0
2026-132A,2026-132A,2026-06-13T21:13:26.604480,14.99041241,.00121896,97.6917,228.6031,283.6406,76.3459,0,U,69502,999,28,.49722189E-4,.544E-5,0
2026-132B,2026-132B,2026-06-13T21:13:16.949280,14.99132884,.00121481,97.6948,228.6041,285.8494,74.1389,0,U,69503,999,28,.35988485E-4,.378E-5,0
2026-132C,2026-132C,2026-06-13T22:48:15.874272,14.99754916,.00136776,97.6889,228.6676,297.2752,62.7078,0,U,69504,999,29,.12280816E-3,.146E-4,0
2026-132D,2026-132D,2026-06-13T09:58:23.387808,15.00977591,.00110344,97.6871,228.1350,315.3023,44.7311,0,U,69505,999,20,.12291978E-3,.1509E-4,0
2026-132E,2026-132E,2026-06-13T22:59:45.049920,14.93464297,.00028233,97.6694,228.6931,327.8570,32.2477,0,U,69506,999,29,.19336345E-3,.1978E-4,0
2026-132F,2026-132F,2026-06-13T09:58:10.881408,15.01040982,.00109152,97.6869,228.1362,319.8335,40.2082,0,U,69507,999,20,.25250362E-3,.317E-4,0
ZHUQUE-2E R/B,2026-128C,2026-06-13T22:26:50.359776,15.62661956,.00659593,54.5308,319.2466,335.2869,24.5008,0,U,69537,999,71,.44053191E-3,.44511E-3,0
